CAS-2T & KS-1Q          
1 41847U 16066G   23022.47181376  .00002340  00000+0  36056-3 0  9990
2 41847  98.5238  91.6526 0360998 274.3731  81.6300 14.39061030325849
NAYIF-1 (EO-88)         
1 42017U 17008BX  23022.63756871  .00061245  00000+0  12582-2 0  9999
2 42017  97.2404  91.5464 0003429 164.7415 195.3939 15.45787150330780
ZHUHAI-1 02 (CAS-4B)    
1 42759U 17034B   23022.77029720  .00008636  00000+0  47667-3 0  9990
2 42759  43.0159 202.1662 0011345 245.3442 129.1757 15.14136230309570
ZHUHAI-1 01 (CAS-4A)    
1 42761U 17034D   23022.81451211  .00011520  00000+0  62890-3 0  9993
2 42761  43.0149 200.5465 0011926 247.3659 244.4545 15.14274152309585
MAX VALIER SAT          
1 42778U 17036P   23022.37217018  .00025735  00000+0  83290-3 0  9999
2 42778  97.1781  61.1989 0007871 265.2406  94.7938 15.31996358310357
RADFXSAT (FOX-1B)       
1 43017U 17073E   23022.42926615  .00009677  00000+0  70356-3 0  9999
2 43017  97.6512 272.5963 0241309 189.2400 170.4336 14.83529983279558
FOX-1D (AO-92)          
1 43137U 18004AC  23021.67836379  .00034167  00000+0  99135-3 0  9998
2 43137  97.3477 100.3503 0006190 315.1171  44.9571 15.35424827279744
DIWATA-2B               
1 43678U 18084H   23022.69720195  .00003212  00000+0  31693-3 0  9999
2 43678  97.9968 164.0212 0008492 285.8068  74.2201 14.92700716230552
ES'HAIL 2               
1 43700U 18090A   23022.31837296  .00000143  00000+0  00000+0 0  9996
2 43700   0.0198  87.4454 0002010 266.6019 267.7430  1.00272338 15460
FOX-1CLIFF (AO-95)      
1 43770U 18099N   23022.43018914  .00007816  00000+0  66794-3 0  9993
2 43770  97.5940  87.9362 0012928 260.9198  99.0562 14.97848000225774
ITASAT 1                
1 43786U 18099AE  23021.67846427  .00006897  00000+0  59079-3 0  9999
2 43786  97.5992  88.2234 0012709 255.4601 104.5212 14.97806095225700
JY1SAT (JO-97)          
1 43803U 18099AX  23021.67210984  .00009862  00000+0  82461-3 0  9998
2 43803  97.5963  88.0720 0012125 253.0875 106.9018 14.98633609225738
UWE-4                   
1 43880U 18111E   23021.70784190  .00009884  00000+0  80061-3 0  9995
2 43880  97.6604 289.2349 0011635 317.9148  42.1181 14.99866036220398
NEXUS (FO-99)           
1 43937U 19003F   23021.87450103  .00043235  00000+0  11399-2 0  9996
2 43937  97.1077  52.3413 0019215  89.6666 270.6782 15.38183062223451
PSAT2 (NO-104)          
1 44354U 19036R   23022.79149787  .00428768  59471-4  96327-3 0  9995
2 44354  28.5162  59.0984 0082077 347.5764  12.2829 15.90494961198887
JAISAT-1                
1 44419U 19038F   23022.36509544  .00025939  00000+0  11230-2 0  9994
2 44419  97.6616   0.2279 0019749  93.9857 266.3637 15.22219625196295
DUCHIFAT-3              
1 44854U 19089C   23022.78090308  .00011131  00000+0  81100-3 0  9995
2 44854  36.9631 238.3962 0007339 224.0543 230.0719 15.03214777170928
CAS-6 (TIANQIN 1)       
1 44881U 19093C   23022.76061416  .00001911  00000+0  24673-3 0  9993
2 44881  97.8759 103.6537 0014469 187.1960 172.9034 14.82070977167255
RS-44 & BREEZE-KM R/B   
1 44909U 19096E   23022.64824090  .00000040  00000+0  11272-3 0  9992
2 44909  82.5197  84.6580 0217836 166.9862 193.6987 12.79717891143593
ORBITAL FACTORY 2 (OF-2)
1 45113U 19071C   23022.46782244  .00164910  00000+0  14433-2 0  9995
2 45113  51.6315  49.2075 0004461 305.4891  54.5689 15.67839204167410
HUSKYSAT-1 (HO-107)     
1 45119U 19071J   23022.32190712  .00116411  00000+0  12631-2 0  9990
2 45119  51.6326  53.4540 0004781 285.8025  74.2442 15.62625945167334
BY70-2                  
1 45857U 20042B   23022.82135894  .00024718  00000+0  29778-2 0  9992
2 45857  97.9390 102.8806 0009609 119.9700 240.2351 14.83805031137937
SALSAT                  
1 46495U 20068K   23020.37026432  .00006526  00000+0  45307-3 0  9998
2 46495  97.7549 327.1702 0014040 261.2160  98.7476 15.05834602126813
BY70-3                  
1 46839U 20079N   23022.74436686  .00116592  00000+0  14444-2 0  9993
2 46839  97.1726  98.6275 0003712 259.5803 218.2241 15.59669172124172
RADFXSAT-2 (AO-109)     
1 47311U 21002C   23022.18857535  .00026103  00000+0  86719-3 0  9997
2 47311  60.6817 256.2586 0037882 102.8053 257.7275 15.30451423111889
UVSQ-SAT                
1 47438U 21006AB  23022.65721274  .00017685  00000+0  84203-3 0  9994
2 47438  97.4085  82.2236 0009933 229.0171 131.0205 15.19161704110515
DIY-1 (ARDUIQUBE)       
1 47963U 21022AH  23022.64618714  .00066337  00000+0  26491-2 0  9990
2 47963  97.5163 287.5535 0016614  93.6504 266.6634 15.24762644100197
XW-3 (CAS-9)            
1 50466U 21131B   23022.75566718  .00000851  00000+0  29210-3 0  9993
2 50466  98.5638 104.7283 0004346 202.6672 157.4324 14.38640170 56448
TEVEL-3                 
1 50988U 22002E   23022.82723715  .00021858  00000+0  10577-2 0  9995
2 50988  97.4554  91.3257 0009438  29.5155  63.1997 15.18558346 56657
TEVEL-8                 
1 50989U 22002F   23022.77482032  .00021843  00000+0  10588-2 0  9990
2 50989  97.4573  91.3180 0009494  28.9078  66.7982 15.18498408 56647
TEVEL-5                 
1 50998U 22002Q   23022.77437902  .00022519  00000+0  10709-2 0  9992
2 50998  97.4555  91.5142 0010695  24.3671  74.7779 15.19147521 56664
TEVEL-6                 
1 50999U 22002R   23022.77308642  .00022479  00000+0  10688-2 0  9992
2 50999  97.4553  91.5106 0010759  23.4021  74.8618 15.19154160 56663
TEVEL-1                 
1 51013U 22002AF  23022.82851591  .00021907  00000+0  10610-2 0  9992
2 51013  97.4556  91.2896 0009313  29.3792  36.4941 15.18528188 56657
TEVEL-7                 
1 51062U 22002CG  23022.77715065  .00021943  00000+0  10635-2 0  9992
2 51062  97.4569  91.2994 0009449  28.3604  69.0281 15.18501797 56640
TEVEL-4                 
1 51063U 22002CH  23022.77937402  .00021783  00000+0  10566-2 0  9999
2 51063  97.4575  91.2927 0009435  28.8339  67.6349 15.18477311 56642
TEVEL-2                 
1 51069U 22002CP  23022.82907832  .00021881  00000+0  10589-2 0  9999
2 51069  97.4563  91.3055 0009321  29.3177  63.2936 15.18556418 56659
YUZGU 9 (RS3S)          
1 53308U 98067TT  23022.82601405  .01191857  77261-3  19815-2 0  9998
2 53308  51.6257 310.1668 0007252 166.8675 193.2526 16.02454464 29035
YUZGU 7 (RS1S)          
1 53309U 98067TU  23022.81562144  .01697702  21037-2  19585-2 0  9997
2 53309  51.6223 309.3172 0007298 172.6669 187.4453 16.08714955 28995
YUZGU 11 (RS5S)         
1 53310U 98067TV  23021.31833433  .01105589  62721-3  20805-2 0  9995
2 53310  51.6286 318.1082 0006376 154.8686 205.2635 16.00308212 28775
YUZGU 12 (RS6S)         
1 53311U 98067TW  23022.79046422  .03734609  11854-4  16966-2 0  9991
2 53311  51.6191 308.3673 0007171 191.5792 168.5063 16.21207236 29053
TSIOLKOVSKY-RYAZAN 1 (*)
1 53312U 98067TX  23022.77767844  .01454108  13280-2  19741-2 0  9996
2 53312  51.6248 309.8290 0007379 170.8980 189.2167 16.05937857 28973
TSIOLKOVSKY-RYAZAN 2 (*)
1 53313U 98067TY  23022.82978478  .01518366  15002-2  19840-2 0  9991
2 53313  51.6247 309.4318 0007437 171.1410 188.9735 16.06594833 29036
YUZGU 10 (RS4S)         
1 53321U 98067TZ  23022.79819697  .01425299  12305-2  20950-2 0  9992
2 53321  51.6274 309.9793 0007319 169.8743 190.2417 16.04619638 29020
RS29S (SXC3-2110 CYCLO*)
1 53373U 22096D   23022.76786395  .00029862  00000+0  10501-2 0  9995
2 53373  97.4277 288.3413 0001975  56.1094  32.0001 15.29305676 25394
RS32S (SXC3-212 MONITO*)
1 53374U 22096E   23022.76026321  .00028839  00000+0  10180-2 0  9998
2 53374  97.4271 288.3395 0001370  57.9955  27.1264 15.29187889 25392
RS34S (SXC3-218 KUZBAS*)
1 53375U 22096F   23022.85059295  .00025203  00000+0  90750-3 0  9999
2 53375  97.4278 288.3711 0001402  56.8288   8.8155 15.28564983 25405
RS23S (SXC3-21 UTMN)    
1 53376U 22096G   23022.77967383  .00026064  00000+0  93390-3 0  9996
2 53376  97.4282 288.3167 0001358  61.0591  12.1179 15.28719318 25397
RS28S (SXC3-214 MIET-A*)
1 53377U 22096H   23022.78520674  .00024677  00000+0  88882-3 0  9994
2 53377  97.4280 288.3187 0001246  54.3285  33.3746 15.28560047 25397
RS26S (KAI-1)           
1 53378U 22096J   23022.73378572  .00021076  00000+0  76931-3 0  9990
2 53378  97.4285 288.2327 0001073  51.1661  36.2147 15.28154835 25389
RS19S (SXC3-219 ISOI)   
1 53381U 22096M   23022.79486374  .00024833  00000+0  87970-3 0  9999
2 53381  97.4279 288.4473 0002884 186.9650 244.3069 15.29100231 25406
RS21S (CUBESX-HSE-2)    
1 53383U 22096P   23022.79198878  .00025477  00000+0  89972-3 0  9999
2 53383  97.4283 288.4605 0003202 187.8511 257.8981 15.29196328 25405
RS30S (SXC3-217 SIREN)  
1 53384U 22096Q   23022.80337142  .00022494  00000+0  80300-3 0  9993
2 53384  97.4275 288.4462 0003230 190.6647 258.0212 15.28868457 25409
RS20S (GEOSCAN-EDELVEIS)
1 53385U 22096R   23022.79616381  .00032422  00000+0  11026-2 0  9997
2 53385  97.4271 288.6010 0003234 186.0142 259.9506 15.30375636 25445
RS33S (SXC3-215 VIZARD) 
1 53386U 22096S   23022.73049747  .00037795  00000+0  12395-2 0  9996
2 53386  97.4272 288.6861 0003825 194.3732 252.3463 15.31513484 25438
CAS-5A (FO-118)         
1 54684U 22167C   23022.83774396  .00015371  00000+0  95534-3 0  9996
2 54684  97.5387 162.0724 0015399 112.2954  43.2540 15.09643441  6710
CAS-10                  
1 54816U 21035C   23021.98031813  .00215142  00000+0  17086-2 0  9994
2 54816  41.4813 325.9254 0007118 160.9235 199.1848 15.69751486  5344
